NORAD_CAT_ID,OBJECT_NAME,OBJECT_TYPE,EPOCH,MEAN_MOTION,ECCENTRICITY,INCLINATION,RA_OF_ASC_NODE,ARG_OF_PERICENTER,MEAN_ANOMALY,BSTAR,MEAN_MOTION_DOT,MEAN_MOTION_DDOT,TLE_LINE0,TLE_LINE1,TLE_LINE2,SEMIMAJOR_AXIS,PERIOD,APOGEE,PERIGEE,DECAYED
53904.0,STARLINK-4787,PAYLOAD,2023-03-17 12:29:27,15.08825433,0.0001377,53.216,168.7047,106.6849,253.4295,0.00048249,7.396e-05,0.0,0 STARLINK-4787,1 53904U 22119U   23076.52045421  .00007396  00000-0  48249-3 0  9992,2 53904  53.2160 168.7047 0001377 106.6849 253.4295 15.08825433 27418,6917.925,95.438,540.743,538.837,0.0
53904.0,STARLINK-4787,PAYLOAD,2023-03-17 23:37:09,15.08839916,0.0001403,53.2157,166.6224,108.6789,251.4355,0.00071341,0.00011084,0.0,0 STARLINK-4787,1 53904U 22119U   23076.98413490  .00011084  00000-0  71341-3 0  9995,2 53904  53.2157 166.6224 0001403 108.6789 251.4355 15.08839916 27060,6917.881,95.438,540.716,538.775,0.0
53904.0,STARLINK-4787,PAYLOAD,2023-03-18 10:44:50,15.08866513,0.000131,53.2157,164.5405,105.8805,254.2332,0.0011391,0.000179,0.0,0 STARLINK-4787,1 53904U 22119U   23077.44780777  .00017900  00000-0  11391-2 0  9993,2 53904  53.2157 164.5405 0001310 105.8805 254.2332 15.08866513 27130,6917.799,95.436,540.571,538.758,0.0
53904.0,STARLINK-4787,PAYLOAD,2023-03-18 12:20:13,15.08869421,0.0001228,53.2156,164.244,98.0918,262.0213,0.0011542,0.00018144,0.0,0 STARLINK-4787,1 53904U 22119U   23077.51404647  .00018144  00000-0  11542-2 0  9999,2 53904  53.2156 164.2440 0001228  98.0918 262.0213 15.08869421 27564,6917.79,95.436,540.505,538.806,0.0
53904.0,STARLINK-4787,PAYLOAD,2023-03-19 13:46:23,15.08862678,8.21e-05,53.216,159.4866,101.3228,258.7857,0.00083012,0.00012956,0.0,0 STARLINK-4787,1 53904U 22119U   23078.57388015  .00012956  00000-0  83012-3 0  9993,2 53904  53.2160 159.4866 0000821 101.3228 258.7857 15.08862678 27728,6917.811,95.436,540.244,539.108,0.0
53904.0,STARLINK-4787,PAYLOAD,2023-03-19 15:21:46,15.08860231,7.3e-05,53.2162,159.1893,96.4635,263.6441,0.001285,0.00020233,0.0,0 STARLINK-4787,1 53904U 22119U   23078.64012069  .00020233  00000-0  12850-2 0  9992,2 53904  53.2162 159.1893 0000730  96.4635 263.6441 15.08860231 27730,6917.819,95.436,540.189,539.179,0.0
53904.0,STARLINK-4787,PAYLOAD,2023-03-20 04:04:51,15.08846313,7.63e-05,53.2164,156.8099,85.6547,274.4532,0.0012815,0.00020169,0.0,0 STARLINK-4787,1 53904U 22119U   23079.17004483  .00020169  00000-0  12815-2 0  9991,2 53904  53.2164 156.8099 0000763  85.6547 274.4532 15.08846313 27390,6917.861,95.437,540.254,539.198,0.0
53904.0,STARLINK-4787,PAYLOAD,2023-03-20 12:01:47,15.08858068,7.1e-05,53.2159,155.3234,115.3553,244.7513,0.0012964,0.00020415,0.0,0 STARLINK-4787,1 53904U 22119U   23079.50124043  .00020415  00000-0  12964-2 0  9992,2 53904  53.2159 155.3234 0000710 115.3553 244.7513 15.08858068 27860,6917.825,95.436,540.181,539.199,0.0
53904.0,STARLINK-4787,PAYLOAD,2023-03-21 03:55:38,15.08854302,8.68e-05,53.2159,152.35,108.1334,251.9752,0.0012579,0.00019796,0.0,0 STARLINK-4787,1 53904U 22119U   23080.16364203  .00019796  00000-0  12579-2 0  9992,2 53904  53.2159 152.3500 0000868 108.1334 251.9752 15.08854302 27541,6917.837,95.437,540.302,539.101,0.0
53904.0,STARLINK-4787,PAYLOAD,2023-03-21 10:17:11,15.08843872,7.1e-05,53.2166,151.1598,102.712,257.3951,0.00025105,3.71e-05,0.0,0 STARLINK-4787,1 53904U 22119U   23080.42860213  .00003710  00000-0  25105-3 0  9992,2 53904  53.2166 151.1598 0000710 102.7120 257.3951 15.08843872 27587,6917.869,95.437,540.225,539.242,0.0
53904.0,STARLINK-4787,PAYLOAD,2023-03-21 21:24:53,15.08836619,7.09e-05,53.2158,149.0787,101.6839,258.4233,0.00014506,2.022e-05,0.0,0 STARLINK-4787,1 53904U 22119U   23080.89228475  .00002022  00000-0  14506-3 0  9999,2 53904  53.2158 149.0787 0000709 101.6839 258.4233 15.08836619 28078,6917.891,95.438,540.246,539.265,0.0
53904.0,STARLINK-4787,PAYLOAD,2023-03-22 05:21:49,15.08829606,9.64e-05,53.2174,147.5932,107.3647,252.7451,-0.00010969,-2.032e-05,0.0,0 STARLINK-4787,1 53904U 22119U   23081.22348918 -.00002032  00000-0 -10969-3 0  9994,2 53904  53.2174 147.5932 0000964 107.3647 252.7451 15.08829606 27700,6917.912,95.438,540.444,539.11,0.0
53904.0,STARLINK-4787,PAYLOAD,2023-03-22 11:43:21,15.08837854,0.0001137,53.2164,146.4029,95.6777,264.4345,3.3617e-05,2.47e-06,0.0,0 STARLINK-4787,1 53904U 22119U   23081.48844872  .00000247  00000-0  33617-4 0  9992,2 53904  53.2164 146.4029 0001137  95.6777 264.4345 15.08837854 27740,6917.887,95.438,540.539,538.965,0.0
53904.0,STARLINK-4787,PAYLOAD,2023-03-23 11:34:08,15.08852462,0.00012,53.2165,141.9428,93.3343,266.7786,0.00041253,6.286e-05,0.0,0 STARLINK-4787,1 53904U 22119U   23082.48204519  .00006286  00000-0  41253-3 0  9994,2 53904  53.2165 141.9428 0001200  93.3343 266.7786 15.08852462 27891,6917.842,95.437,540.537,538.877,0.0
53904.0,STARLINK-4787,PAYLOAD,2023-03-23 21:06:27,15.08853045,0.0001301,53.2155,140.1594,71.1228,288.9905,0.00041646,6.349e-05,0.0,0 STARLINK-4787,1 53904U 22119U   23082.87948527  .00006349  00000-0  41646-3 0  9997,2 53904  53.2155 140.1594 0001301  71.1228 288.9905 15.08853045 28374,6917.841,95.437,540.606,538.806,0.0
53904.0,STARLINK-4787,PAYLOAD,2023-03-24 03:27:59,15.08854565,0.0001365,53.2157,138.9698,71.1863,288.9277,0.00037986,5.765e-05,0.0,0 STARLINK-4787,1 53904U 22119U   23083.14444329  .00005765  00000-0  37986-3 0  9992,2 53904  53.2157 138.9698 0001365  71.1863 288.9277 15.08854565 27998,6917.836,95.437,540.645,538.757,0.0
53904.0,STARLINK-4787,PAYLOAD,2023-03-24 09:49:31,15.08890788,0.0001396,53.2153,137.7809,72.0808,288.0337,0.0015182,0.0002399,0.0,0 STARLINK-4787,1 53904U 22119U   23083.40939422  .00023990  00000-0  15182-2 0  9997,2 53904  53.2153 137.7809 0001396  72.0808 288.0337 15.08890788 28039,6917.725,95.434,540.556,538.624,0.0
53904.0,STARLINK-4787,PAYLOAD,2023-03-24 20:57:13,15.08855697,0.0001474,53.2153,135.6996,71.2368,288.8784,0.00015583,2.194e-05,0.0,0 STARLINK-4787,1 53904U 22119U   23083.87307478  .00002194  00000-0  15583-3 0  9997,2 53904  53.2153 135.6996 0001474  71.2368 288.8784 15.08855697 28104,6917.832,95.437,540.717,538.678,0.0
53904.0,STARLINK-4787,PAYLOAD,2023-03-25 03:18:47,15.08811891,0.0001503,53.2152,134.5098,88.84,271.2764,-0.0010063,-0.00016255,0.0,0 STARLINK-4787,1 53904U 22119U   23084.13804526 -.00016255  00000-0 -10063-2 0  9995,2 53904  53.2152 134.5098 0001503  88.8400 271.2764 15.08811891 28144,6917.966,95.439,540.871,538.792,0.0
53904.0,STARLINK-4787,PAYLOAD,2023-03-25 09:40:20,15.08808854,0.0001451,53.2153,133.3203,84.308,275.8078,-0.00067633,-0.00011026,0.0,0 STARLINK-4787,1 53904U 22119U   23084.40301433 -.00011026  00000-0 -67633-3 0  9991,2 53904  53.2153 133.3203 0001451  84.3080 275.8078 15.08808854 28601,6917.976,95.44,540.844,538.837,0.0
53904.0,STARLINK-4787,PAYLOAD,2023-03-26 03:09:35,15.08822554,0.0001142,53.2152,130.0497,73.0682,287.0435,4.8664e-05,4.86e-06,0.0,0 STARLINK-4787,1 53904U 22119U   23085.13166220  .00000486  00000-0  48664-4 0  9995,2 53904  53.2152 130.0497 0001142  73.0682 287.0435 15.08822554 28299,6917.934,95.439,540.589,539.009,0.0
53904.0,STARLINK-4787,PAYLOAD,2023-03-26 09:31:07,15.0883705,0.0001421,53.2157,128.8556,118.2319,241.8816,0.0005302,8.16e-05,0.0,0 STARLINK-4787,1 53904U 22119U   23085.39661955  .00008160  00000-0  53020-3 0  9996,2 53904  53.2157 128.8556 0001421 118.2319 241.8816 15.08837050 28337,6917.889,95.438,540.737,538.771,0.0
53904.0,STARLINK-4787,PAYLOAD,2023-03-27 07:46:31,15.08864935,0.000146,53.2156,124.6928,115.5008,244.6135,0.00097675,0.00015302,0.0,0 STARLINK-4787,1 53904U 22119U   23086.32397745  .00015302  00000-0  97675-3 0  9993,2 53904  53.2156 124.6928 0001460 115.5008 244.6135 15.08864935 28899,6917.804,95.436,540.679,538.659,0.0
53904.0,STARLINK-4787,PAYLOAD,2023-03-27 18:54:13,15.08860503,0.0001376,53.2161,122.6137,109.374,250.7401,0.00050776,7.807e-05,0.0,0 STARLINK-4787,1 53904U 22119U   23086.78765391  .00007807  00000-0  50776-3 0  9991,2 53904  53.2161 122.6137 0001376 109.3740 250.7401 15.08860503 28548,6917.818,95.436,540.635,538.731,0.0
53904.0,STARLINK-4787,PAYLOAD,2023-03-28 02:51:08,15.08851747,0.00018,53.2164,121.1251,121.1713,238.9455,0.00019044,2.745e-05,0.0,0 STARLINK-4787,1 53904U 22119U   23087.11885288  .00002745  00000-0  19044-3 0  9996,2 53904  53.2164 121.1251 0001800 121.1713 238.9455 15.08851747 28598,6917.844,95.437,540.955,538.464,0.0
53904.0,STARLINK-4787,PAYLOAD,2023-03-28 06:01:55,15.08845123,0.0001713,53.2176,120.532,119.4695,240.6468,-1.0144e-05,-4.5e-06,0.0,0 STARLINK-4787,1 53904U 22119U   23087.25133459 -.00000450  00000-0 -10144-4 0  9993,2 53904  53.2176 120.5320 0001713 119.4695 240.6468 15.08845123 29038,6917.865,95.437,540.915,538.545,0.0
53904.0,STARLINK-4787,PAYLOAD,2023-03-28 18:45:00,15.08850189,0.0001385,53.217,118.1528,111.8522,248.2617,0.00012841,1.757e-05,0.0,0 STARLINK-4787,1 53904U 22119U   23087.78125136  .00001757  00000-0  12841-3 0  9998,2 53904  53.2170 118.1528 0001385 111.8522 248.2617 15.08850189 29112,6917.849,95.437,540.672,538.756,0.0
53904.0,STARLINK-4787,PAYLOAD,2023-03-29 02:41:55,15.08847165,0.0001555,53.2187,116.6662,115.0352,245.0802,5.1547e-05,5.33e-06,0.0,0 STARLINK-4787,1 53904U 22119U   23088.11245154  .00000533  00000-0  51547-4 0  9997,2 53904  53.2187 116.6662 0001555 115.0352 245.0802 15.08847165 28747,6917.858,95.437,540.799,538.648,0.0
53904.0,STARLINK-4787,PAYLOAD,2023-03-29 07:28:05,15.08844969,0.0001539,53.2173,115.7735,110.9668,249.1489,3.0432e-05,1.96e-06,0.0,0 STARLINK-4787,1 53904U 22119U   23088.31117217  .00000196  00000-0  30432-4 0  9992,2 53904  53.2173 115.7735 0001539 110.9668 249.1489 15.08844969 29194,6917.865,95.437,540.795,538.666,0.0
53904.0,STARLINK-4787,PAYLOAD,2023-03-29 18:35:46,15.08848537,0.0001061,53.2164,113.6924,103.5854,256.5256,4.6125e-05,4.47e-06,0.0,0 STARLINK-4787,1 53904U 22119U   23088.77484905  .00000447  00000-0  46125-4 0  9998,2 53904  53.2164 113.6924 0001061 103.5854 256.5256 15.08848537 29263,6917.854,95.437,540.453,538.985,0.0
